STARLINK-1785_new
1 17124C 20088C   21326.08336032  .00003356  00000-0  22488-3 0  3263
2 17124  53.0511 148.3771 0001920  79.9987 224.6711 15.06387633    13
STARLINK-1785_old
1 27124C 20088C   21325.08805133  .00002906  00000-0  19474-3 0  3255
2 27124  53.0512 152.8453 0001904  78.6918 225.4280 15.06386257    14
